{"type": "FeatureCollection", "features": [ {"type": "Feature", "properties": {"norad_id": 30242, "name": "FENGYUN 1C DEB", "group": "fengyun-1c-debris", "lat": 80.91297793349199, "lon": -87.17636847193081, "alt_km": 819.3609414073098, "timestamp": "2025-12-11T18:59:46.348176+00:00", "meta": {"OBJECT_NAME": "FENGYUN 1C DEB", "OBJECT_ID": "1999-025XB", "EPOCH": "2025-12-11T01:54:26.280576", "MEAN_MOTION": 14.17631714, "ECCENTRICITY": 0.00111437, "INCLINATION": 98.6834, "RA_OF_ASC_NODE": 19.2875, "ARG_OF_PERICENTER": 59.3308, "MEAN_ANOMALY": 1.4361, "EPHEMERIS_TYPE": 0, "CLASSIFICATION_TYPE": "U", "NORAD_CAT_ID": 30242, "ELEMENT_SET_NO": 999, "REV_AT_EPOCH": 97403, "BSTAR": 0.00081529933, "MEAN_MOTION_DOT": 1.616e-05, "MEAN_MOTION_DDOT": 0}, "tle": {"line1": "1 30242U 99025XB  25345.07947084  .00001616  00000+0  81530-3 0  9997", "line2": "2 30242  98.6834  19.2875 0011143  59.3308   1.4361 14.17631714974034"}}, "geometry": {"type": "Point", "coordinates": [-87.17636847193081, 80.91297793349199]}}, {"type": "Feature", "properties": {"norad_id": 30243, "name": "FENGYUN 1C DEB", "group": "fengyun-1c-debris", "lat": -12.194167494866463, "lon": 175.34303204427096, "alt_km": 850.2956568151039, "timestamp": "2025-12-11T18:59:46.348186+00:00", "meta": {"OBJECT_NAME": "FENGYUN 1C DEB", "OBJECT_ID": "1999-025XC", "EPOCH": "2025-12-10T19:08:59.756640", "MEAN_MOTION": 14.13017531, "ECCENTRICITY": 0.00130335, "INCLINATION": 98.6933, "RA_OF_ASC_NODE": 356.273, "ARG_OF_PERICENTER": 124.2652, "MEAN_ANOMALY": 56.3612, "EPHEMERIS_TYPE": 0, "CLASSIFICATION_TYPE": "U", "NORAD_CAT_ID": 30243, "ELEMENT_SET_NO": 999, "REV_AT_EPOCH": 97251, "BSTAR": 0.00055706239, "MEAN_MOTION_DOT": 9.97e-06, "MEAN_MOTION_DDOT": 0}, "tle": {"line1": "1 30243U 99025XC  25344.79791385  .00000997  00000+0  55706-3 0  9994", "line2": "2 30243  98.6933 356.2730 0013033 124.2652  56.3612 14.13017531972513"}}, "geometry": {"type": "Point", "coordinates": [175.34303204427096, -12.194167494866463]}}, {"type": "Feature", "properties": {"norad_id": 30244, "name": "FENGYUN 1C DEB", "group": "fengyun-1c-debris", "lat": 19.93450694598211, "lon": -127.9291962171452, "alt_km": 839.0242305322654, "timestamp": "2025-12-11T18:59:46.348196+00:00", "meta": {"OBJECT_NAME": "FENGYUN 1C DEB", "OBJECT_ID": "1999-025XD", "EPOCH": "2025-12-11T04:23:45.845664", "MEAN_MOTION": 14.15012034, "ECCENTRICITY": 0.00096411, "INCLINATION": 99.1434, "RA_OF_ASC_NODE": 234.7963, "ARG_OF_PERICENTER": 319.6255, "MEAN_ANOMALY": 203.3931, "EPHEMERIS_TYPE": 0, "CLASSIFICATION_TYPE": "U", "NORAD_CAT_ID": 30244, "ELEMENT_SET_NO": 999, "REV_AT_EPOCH": 97324, "BSTAR": 0.00058302126, "MEAN_MOTION_DOT": 1.082e-05, "MEAN_MOTION_DDOT": 0}, "tle": {"line1": "1 30244U 99025XD  25345.18316951  .00001082  00000+0  58302-3 0  9992", "line2": "2 30244  99.1434 234.7963 0009641 319.6255 203.3931 14.15012034973247"}}, "geometry": {"type": "Point", "coordinates": [-127.9291962171452, 19.93450694598211]}}, {"type": "Feature", "properties": {"norad_id": 30245, "name": "FENGYUN 1C DEB", "group": "fengyun-1c-debris", "lat": -73.24794099705825, "lon": 4.777470398164628, "alt_km": 851.7581674230714, "timestamp": "2025-12-11T18:59:46.348207+00:00", "meta": {"OBJECT_NAME": "FENGYUN 1C DEB", "OBJECT_ID": "1999-025XE", "EPOCH": "2025-12-11T05:25:40.780416", "MEAN_MOTION": 13.79062122, "ECCENTRICITY": 0.01931514, "INCLINATION": 98.8894, "RA_OF_ASC_NODE": 332.9191, "ARG_OF_PERICENTER": 255.106, "MEAN_ANOMALY": 102.8633, "EPHEMERIS_TYPE": 0, "CLASSIFICATION_TYPE": "U", "NORAD_CAT_ID": 30245, "ELEMENT_SET_NO": 999, "REV_AT_EPOCH": 94673, "BSTAR": 0.0016424233, "MEAN_MOTION_DOT": 1.888e-05, "MEAN_MOTION_DDOT": 0}, "tle": {"line1": "1 30245U 99025XE  25345.22616644  .00001888  00000+0  16424-2 0  9992", "line2": "2 30245  98.8894 332.9191 0193151 255.1060 102.8633 13.79062122946734"}}, "geometry": {"type": "Point", "coordinates": [4.777470398164628, -73.24794099705825]}}, {"type": "Feature", "properties": {"norad_id": 30246, "name": "FENGYUN 1C DEB", "group": "fengyun-1c-debris", "lat": 11.48585408274807, "lon": -48.618983405371445, "alt_km": 1000.8467641057096, "timestamp": "2025-12-11T18:59:46.348217+00:00", "meta": {"OBJECT_NAME": "FENGYUN 1C DEB", "OBJECT_ID": "1999-025XF", "EPOCH": "2025-12-11T07:43:33.823200", "MEAN_MOTION": 13.3701789, "ECCENTRICITY": 0.03706742, "INCLINATION": 98.673, "RA_OF_ASC_NODE": 129.2028, "ARG_OF_PERICENTER": 103.2653, "MEAN_ANOMALY": 322.0839, "EPHEMERIS_TYPE": 0, "CLASSIFICATION_TYPE": "U", "NORAD_CAT_ID": 30246, "ELEMENT_SET_NO": 999, "REV_AT_EPOCH": 92121, "BSTAR": 0.0004206329, "MEAN_MOTION_DOT": 2.93e-06, "MEAN_MOTION_DDOT": 0}, "tle": {"line1": "1 30246U 99025XF  25345.32191925  .00000293  00000+0  42063-3 0  9992", "line2": "2 30246  98.6730 129.2028 0370674 103.2653 322.0839 13.37017890921212"}}, "geometry": {"type": "Point", "coordinates": [-48.618983405371445, 11.48585408274807]}}, {"type": "Feature", "properties": {"norad_id": 30247, "name": "FENGYUN 1C DEB", "group": "fengyun-1c-debris", "lat": 6.22037892299531, "lon": 73.85551458582259, "alt_km": 835.5663542219581, "timestamp": "2025-12-11T18:59:46.348228+00:00", "meta": {"OBJECT_NAME": "FENGYUN 1C DEB", "OBJECT_ID": "1999-025XG", "EPOCH": "2025-12-11T07:16:05.073600", "MEAN_MOTION": 14.59085464, "ECCENTRICITY": 0.01943746, "INCLINATION": 98.2758, "RA_OF_ASC_NODE": 252.4592, "ARG_OF_PERICENTER": 356.481, "MEAN_ANOMALY": 131.693, "EPHEMERIS_TYPE": 0, "CLASSIFICATION_TYPE": "U", "NORAD_CAT_ID": 30247, "ELEMENT_SET_NO": 999, "REV_AT_EPOCH": 97261, "BSTAR": 0.0070169312, "MEAN_MOTION_DOT": 0.00043145, "MEAN_MOTION_DDOT": 0}, "tle": {"line1": "1 30247U 99025XG  25345.30283650  .00043145  00000+0  70169-2 0  9998", "line2": "2 30247  98.2758 252.4592 0194374 356.4810 131.6930 14.59085464972615"}}, "geometry": {"type": "Point", "coordinates": [73.85551458582259, 6.22037892299531]}}, {"type": "Feature", "properties": {"norad_id": 30248, "name": "FENGYUN 1C DEB", "group": "fengyun-1c-debris", "lat": -28.031608759596626, "lon": -15.070887126534059, "alt_km": 689.9123696771067, "timestamp": "2025-12-11T18:59:46.348239+00:00", "meta": {"OBJECT_NAME": "FENGYUN 1C DEB", "OBJECT_ID": "1999-025XH", "EPOCH": "2025-12-10T10:46:31.987776", "MEAN_MOTION": 14.59034359, "ECCENTRICITY": 0.00297297, "INCLINATION": 99.0983, "RA_OF_ASC_NODE": 168.3538, "ARG_OF_PERICENTER": 156.736, "MEAN_ANOMALY": 203.519, "EPHEMERIS_TYPE": 0, "CLASSIFICATION_TYPE": "U", "NORAD_CAT_ID": 30248, "ELEMENT_SET_NO": 999, "REV_AT_EPOCH": 97395, "BSTAR": 0.0062067372, "MEAN_MOTION_DOT": 0.00029411, "MEAN_MOTION_DDOT": 0}, "tle": {"line1": "1 30248U 99025XH  25344.44898134  .00029411  00000+0  62067-2 0  9990", "line2": "2 30248  99.0983 168.3538 0029729 156.7360 203.5190 14.59034359973954"}}, "geometry": {"type": "Point", "coordinates": [-15.070887126534059, -28.031608759596626]}}, {"type": "Feature", "properties": {"norad_id": 30249, "name": "FENGYUN 1C DEB", "group": "fengyun-1c-debris", "lat": -76.2052832337051, "lon": -169.88287336165473, "alt_km": 718.7154682580649, "timestamp": "2025-12-11T18:59:46.348249+00:00", "meta": {"OBJECT_NAME": "FENGYUN 1C DEB", "OBJECT_ID": "1999-025XJ", "EPOCH": "2025-12-10T10:39:33.348672", "MEAN_MOTION": 14.57549549, "ECCENTRICITY": 0.00264505, "INCLINATION": 98.9591, "RA_OF_ASC_NODE": 148.6875, "ARG_OF_PERICENTER": 49.0417, "MEAN_ANOMALY": 5.7866, "EPHEMERIS_TYPE": 0, "CLASSIFICATION_TYPE": "U", "NORAD_CAT_ID": 30249, "ELEMENT_SET_NO": 999, "REV_AT_EPOCH": 97530, "BSTAR": 0.005460894, "MEAN_MOTION_DOT": 0.00025, "MEAN_MOTION_DDOT": 0}, "tle": {"line1": "1 30249U 99025XJ  25344.44413598  .00025000  00000+0  54609-2 0  9991", "line2": "2 30249  98.9591 148.6875 0026450  49.0417   5.7866 14.57549549975301"}}, "geometry": {"type": "Point", "coordinates": [-169.88287336165473, -76.2052832337051]}}, {"type": "Feature", "properties": {"norad_id": 30250, "name": "FENGYUN 1C DEB", "group": "fengyun-1c-debris", "lat": -10.129360705975849, "lon": 156.19853381957293, "alt_km": 851.9336214157283, "timestamp": "2025-12-11T18:59:46.348260+00:00", "meta": {"OBJECT_NAME": "FENGYUN 1C DEB", "OBJECT_ID": "1999-025XK", "EPOCH": "2025-12-10T10:17:34.116576", "MEAN_MOTION": 14.01621582, "ECCENTRICITY": 0.00684475, "INCLINATION": 98.7542, "RA_OF_ASC_NODE": 336.4685, "ARG_OF_PERICENTER": 229.9492, "MEAN_ANOMALY": 288.7715, "EPHEMERIS_TYPE": 0, "CLASSIFICATION_TYPE": "U", "NORAD_CAT_ID": 30250, "ELEMENT_SET_NO": 999, "REV_AT_EPOCH": 96459, "BSTAR": 0.00060576292, "MEAN_MOTION_DOT": 8.94e-06, "MEAN_MOTION_DDOT": 0}, "tle": {"line1": "1 30250U 99025XK  25344.42886709  .00000894  00000+0  60576-3 0  9994", "line2": "2 30250  98.7542 336.4685 0068447 229.9492 288.7715 14.01621582964599"}}, "geometry": {"type": "Point", "coordinates": [156.19853381957293, -10.129360705975849]}}, {"type": "Feature", "properties": {"norad_id": 30251, "name": "FENGYUN 1C DEB", "group": "fengyun-1c-debris", "lat": 18.37561268746768, "lon": 7.1099524933364515, "alt_km": 831.0999394600904, "timestamp": "2025-12-11T18:59:46.348271+00:00", "meta": {"OBJECT_NAME": "FENGYUN 1C DEB", "OBJECT_ID": "1999-025XL", "EPOCH": "2025-12-11T07:18:05.228352", "MEAN_MOTION": 14.29299083, "ECCENTRICITY": 0.00518091, "INCLINATION": 99.0488, "RA_OF_ASC_NODE": 183.5698, "ARG_OF_PERICENTER": 334.4596, "MEAN_ANOMALY": 201.0153, "EPHEMERIS_TYPE": 0, "CLASSIFICATION_TYPE": "U", "NORAD_CAT_ID": 30251, "ELEMENT_SET_NO": 999, "REV_AT_EPOCH": 98121, "BSTAR": 0.00079863379, "MEAN_MOTION_DOT": 2.014e-05, "MEAN_MOTION_DDOT": 0}, "tle": {"line1": "1 30251U 99025XL  25345.30422718  .00002014  00000+0  79863-3 0  9994", "line2": "2 30251  99.0488 183.5698 0051809 334.4596 201.0153 14.29299083981218"}}, "geometry": {"type": "Point", "coordinates": [7.1099524933364515, 18.37561268746768]}}]}